OBJECT_NAME,OBJECT_ID,EPOCH,MEAN_MOTION,ECCENTRICITY,INCLINATION,RA_OF_ASC_NODE,ARG_OF_PERICENTER,MEAN_ANOMALY,EPHEMERIS_TYPE,CLASSIFICATION_TYPE,NORAD_CAT_ID,ELEMENT_SET_NO,REV_AT_EPOCH,BSTAR,MEAN_MOTION_DOT,MEAN_MOTION_DDOT
STARLINK-30708,2023-148K,2026-07-01T07:03:20.746368,15.34393804,.00012106,53.1601,215.3315,98.1263,261.9877,0,U,57944,999,15583,.42608525E-4,.1063E-4,0
STARLINK-30705,2023-148L,2026-07-01T11:47:45.541248,15.34395902,.00012335,53.1597,214.4336,87.5603,272.5541,0,U,57945,999,15586,.27039942E-4,.537E-5,0
STARLINK-30704,2023-148M,2026-07-01T11:58:18.991488,15.34400798,.00007312,53.1607,292.0295,88.1259,271.9828,0,U,57946,999,15475,.20358742E-4,.312E-5,0
STARLINK-30706,2023-148N,2026-07-01T06:27:00.382752,15.34377726,.00011302,53.1591,215.1669,71.3777,288.7348,0,U,57947,999,15583,.10125296E-3,.3044E-4,0
STARLINK-30707,2023-148Q,2026-07-01T08:21:59.865120,15.34388549,.00010978,53.1597,214.9576,95.0382,265.0746,0,U,57949,999,15584,.22084078E-4,.37E-5,0
STARLINK-30701,2023-148R,2026-07-01T09:16:31.553184,15.34395911,.00012075,53.1598,215.1789,95.4638,264.6502,0,U,57950,999,15584,.28816284E-4,.597E-5,0
STARLINK-30399,2023-148S,2026-07-01T11:17:27.900384,15.34389251,.00010403,53.1587,214.2772,107.5937,252.5180,0,U,57951,999,15586,.42268719E-4,.1052E-4,0
STARLINK-30713,2023-148T,2026-07-01T11:59:53.886336,15.34405770,.00011387,53.1578,214.4839,106.2769,253.8359,0,U,57952,999,15586,.17691325E-3,.5607E-4,0
STARLINK-30700,2023-148U,2026-07-01T08:51:14.997312,15.30194865,.000142,53.1584,206.1815,76.5704,283.5455,0,U,57953,999,15596,.3708122E-3,.10637E-3,0
STARLINK-30703,2023-148V,2026-07-01T11:17:18.914784,15.34394433,.0001249,53.1600,204.2210,87.7290,272.3855,0,U,57954,999,15600,.27613349E-4,.557E-5,0
STARLINK-30702,2023-148W,2026-07-01T06:08:47.295744,15.34394494,.00010177,53.1588,205.7179,102.2458,257.8658,0,U,57955,999,15596,.45750469E-4,.117E-4,0
STARLINK-30396,2023-151A,2026-07-01T08:04:13.935360,15.27579472,.00011924,43.0016,54.4975,263.7042,96.3674,0,U,57964,999,15314,.51149516E-4,.1146E-4,0
STARLINK-30524,2023-151B,2026-07-01T15:45:45.491328,15.27585434,.00017393,43.0034,52.6079,270.2722,89.7931,0,U,57965,999,15319,-.8849177E-5,-.506E-5,0
STARLINK-30521,2023-151C,2026-07-01T08:41:01.217760,15.27588407,.0001933,43.0029,53.8235,255.4559,104.6079,0,U,57966,999,15315,.7299898E-4,.1747E-4,0
STARLINK-30528,2023-151D,2026-07-01T15:03:13.091040,15.27565277,.00009833,43.0047,52.3816,271.4812,88.5927,0,U,57967,999,15319,.68893398E-4,.1633E-4,0
STARLINK-30495,2023-151E,2026-06-30T15:51:13.100256,15.27580694,.00015488,43.0032,58.0227,285.1609,74.9071,0,U,57968,999,15304,-.4179482E-5,-.377E-5,0
STARLINK-30494,2023-151G,2026-06-30T22:22:52.084128,15.27579310,.0001323,42.9980,271.0191,263.0811,96.9890,0,U,57970,999,15477,.4191E-4,.891E-5,0
STARLINK-30498,2023-151H,2026-06-30T23:36:26.610912,15.27571112,.00013619,43.0071,56.1340,246.9435,113.1273,0,U,57971,999,15309,.96832628E-4,.2403E-4,0
STARLINK-30505,2023-151J,2026-07-01T08:00:31.135680,15.27619072,.00028755,43.0001,54.4559,272.3851,87.6672,0,U,57972,999,15314,.11408854E-2,.31305E-3,0
STARLINK-30502,2023-151K,2026-07-01T15:12:26.746560,15.27500251,.00010454,43.0055,52.4159,292.2181,67.8560,0,U,57973,999,15319,.64741448E-3,.17552E-3,0
STARLINK-30489,2023-151L,2026-07-01T15:19:50.336256,15.27595265,.00019375,43.0032,52.4582,284.1661,75.8975,0,U,57974,999,15319,-.40227864E-4,-.137E-4,0
STARLINK-30503,2023-151M,2026-07-01T16:00:33.227136,15.27584033,.00011808,43.0044,52.6432,268.5647,91.5070,0,U,57975,999,15319,.60475151E-4,.1403E-4,0
STARLINK-30512,2023-151N,2026-07-01T08:52:06.924576,15.27594604,.00011647,43.0052,53.8213,268.6402,91.4316,0,U,57976,999,15315,-.38410697E-4,-.1319E-4,0
STARLINK-30509,2023-151P,2026-07-01T15:48:40.094496,15.27545469,.00019192,43.0072,67.0348,258.2117,101.8519,0,U,57977,999,15302,.33040015E-3,.8831E-4,0
STARLINK-30511,2023-151Q,2026-07-01T09:41:17.030976,15.27584582,.00011037,43.0013,68.5565,241.2170,118.8571,0,U,57978,999,15298,.87711722E-4,.2153E-4,0
STARLINK-30508,2023-151R,2026-07-01T16:03:27.861408,15.27594607,.00013982,43.0036,67.1067,264.5475,95.5217,0,U,57979,999,15302,.30659007E-3,.8188E-4,0
STARLINK-30510,2023-151T,2026-07-01T09:14:41.152128,15.27565971,.00007109,43.0038,71.8258,247.1146,112.9631,0,U,57981,999,15294,-.37277953E-4,-.1287E-4,0
STARLINK-30507,2023-151U,2026-06-30T23:55:17.374368,15.27585058,.0000903,42.9932,74.0627,260.1569,99.9180,0,U,57982,999,15287,.59846081E-3,.16245E-3,0
STARLINK-30515,2023-151V,2026-07-01T00:00:49.813920,15.27628048,.00015128,43.0019,74.0901,268.8423,91.2255,0,U,57983,999,15287,-.37056836E-3,-.1046E-3,0
STARLINK-30516,2023-151W,2026-07-01T09:31:20.177184,15.27550723,.0001922,43.0022,71.9145,275.6125,84.4508,0,U,57984,999,15294,.11255357E-3,.2833E-4,0
