STARLINK-30708          
1 57944U 23148K   26182.29399012  .00001063  00000+0  42609-4 0  9995
2 57944  53.1601 215.3315 0001210  98.1263 261.9877 15.34393804155832
STARLINK-30705          
1 57945U 23148L   26182.49149932  .00000537  00000+0  27040-4 0  9999
2 57945  53.1597 214.4336 0001233  87.5603 272.5541 15.34395902155865
STARLINK-30704          
1 57946U 23148M   26182.49883092  .00000312  00000+0  20359-4 0  9999
2 57946  53.1607 292.0295 0000731  88.1259 271.9828 15.34400798154758
STARLINK-30706          
1 57947U 23148N   26182.26875443  .00003044  00000+0  10125-3 0  9990
2 57947  53.1591 215.1669 0001130  71.3777 288.7348 15.34377726155832
STARLINK-30707          
1 57949U 23148Q   26182.34860955  .00000370  00000+0  22084-4 0  9990
2 57949  53.1597 214.9576 0001097  95.0382 265.0746 15.34388549155847
STARLINK-30701          
1 57950U 23148R   26182.38647631  .00000597  00000+0  28816-4 0  9990
2 57950  53.1598 215.1789 0001207  95.4638 264.6502 15.34395911155846
STARLINK-30399          
1 57951U 23148S   26182.47046181  .00001052  00000+0  42269-4 0  9999
2 57951  53.1587 214.2772 0001040 107.5937 252.5180 15.34389251155869
STARLINK-30713          
1 57952U 23148T   26182.49992924  .00005607  00000+0  17691-3 0  9997
2 57952  53.1578 214.4839 0001138 106.2769 253.8359 15.34405770155860
STARLINK-30700          
1 57953U 23148U   26182.36892358  .00010637  00000+0  37081-3 0  9998
2 57953  53.1584 206.1815 0001420  76.5704 283.5455 15.30194865155966
STARLINK-30703          
1 57954U 23148V   26182.47035781  .00000557  00000+0  27613-4 0  9991
2 57954  53.1600 204.2210 0001249  87.7290 272.3855 15.34394433156000
STARLINK-30702          
1 57955U 23148W   26182.25610296  .00001170  00000+0  45750-4 0  9992
2 57955  53.1588 205.7179 0001017 102.2458 257.8658 15.34394494155968
STARLINK-30396          
1 57964U 23151A   26182.33627240  .00001146  00000+0  51150-4 0  9996
2 57964  43.0016  54.4975 0001192 263.7042  96.3674 15.27579472153146
STARLINK-30524          
1 57965U 23151B   26182.65677652 -.00000506  00000+0 -88492-5 0  9995
2 57965  43.0034  52.6079 0001739 270.2722  89.7931 15.27585434153199
STARLINK-30521          
1 57966U 23151C   26182.36181965  .00001747  00000+0  72999-4 0  9991
2 57966  43.0029  53.8235 0001933 255.4559 104.6079 15.27588407153159
STARLINK-30528          
1 57967U 23151D   26182.62723485  .00001633  00000+0  68893-4 0  9992
2 57967  43.0047  52.3816 0000983 271.4812  88.5927 15.27565277153199
STARLINK-30495          
1 57968U 23151E   26181.66056829 -.00000377  00000+0 -41795-5 0  9996
2 57968  43.0032  58.0227 0001548 285.1609  74.9071 15.27580694153040
STARLINK-30494          
1 57970U 23151G   26181.93254727  .00000891  00000+0  41910-4 0  9993
2 57970  42.9980 271.0191 0001323 263.0811  96.9890 15.27579310154778
STARLINK-30498          
1 57971U 23151H   26181.98364133  .00002403  00000+0  96833-4 0  9997
2 57971  43.0071  56.1340 0001361 246.9435 113.1273 15.27571112153097
STARLINK-30505          
1 57972U 23151J   26182.33369370  .00031305  00000+0  11409-2 0  9993
2 57972  43.0001  54.4559 0002875 272.3851  87.6672 15.27619072153142
STARLINK-30502          
1 57973U 23151K   26182.63364290  .00017552  00000+0  64741-3 0  9999
2 57973  43.0055  52.4159 0001045 292.2181  67.8560 15.27500251153190
STARLINK-30489          
1 57974U 23151L   26182.63877704 -.00001370  00000+0 -40228-4 0  9997
2 57974  43.0032  52.4582 0001937 284.1661  75.8975 15.27595265153197
STARLINK-30503          
1 57975U 23151M   26182.66705124  .00001403  00000+0  60475-4 0  9998
2 57975  43.0044  52.6432 0001180 268.5647  91.5070 15.27584033153199
STARLINK-30512          
1 57976U 23151N   26182.36952459 -.00001319  00000+0 -38411-4 0  9994
2 57976  43.0052  53.8213 0001164 268.6402  91.4316 15.27594604153154
STARLINK-30509          
1 57977U 23151P   26182.65879739  .00008831  00000+0  33040-3 0  9992
2 57977  43.0072  67.0348 0001919 258.2117 101.8519 15.27545469153021
STARLINK-30511          
1 57978U 23151Q   26182.40366934  .00002153  00000+0  87712-4 0  9991
2 57978  43.0013  68.5565 0001103 241.2170 118.8571 15.27584582152989
STARLINK-30508          
1 57979U 23151R   26182.66907247  .00008188  00000+0  30659-3 0  9999
2 57979  43.0036  67.1067 0001398 264.5475  95.5217 15.27594607153022
STARLINK-30510          
1 57981U 23151T   26182.38519852 -.00001287  00000+0 -37278-4 0  9992
2 57981  43.0038  71.8258 0000710 247.1146 112.9631 15.27565971152946
STARLINK-30507          
1 57982U 23151U   26181.99672887  .00016245  00000+0  59846-3 0  9999
2 57982  42.9932  74.0627 0000903 260.1569  99.9180 15.27585058152874
STARLINK-30515          
1 57983U 23151V   26182.00057655 -.00010460  00000+0 -37057-3 0  9998
2 57983  43.0019  74.0901 0001512 268.8423  91.2255 15.27628048152874
STARLINK-30516          
1 57984U 23151W   26182.39676131  .00002833  00000+0  11255-3 0  9992
2 57984  43.0022  71.9145 0001922 275.6125  84.4508 15.27550723152942
